[{"OBJECT_NAME":"SL-8 R/B","OBJECT_ID":"1988-053B","EPOCH":"2026-03-31T17:13:00.761088","MEAN_MOTION":14.38931655,"ECCENTRICITY":0.0021411,"INCLINATION":74.0461,"RA_OF_ASC_NODE":71.8585,"ARG_OF_PERICENTER":248.2273,"MEAN_ANOMALY":284.8247,"EPHEMERIS_TYPE":0,"CLASSIFICATION_TYPE":"U","NORAD_CAT_ID":19257,"ELEMENT_SET_NO":999,"REV_AT_EPOCH":97976,"BSTAR":0.00014075,"MEAN_MOTION_DOT":4.08e-6,"MEAN_MOTION_DDOT":0},{"OBJECT_NAME":"COSMOS 1975","OBJECT_ID":"1988-093A","EPOCH":"2026-03-31T17:24:30.964896","MEAN_MOTION":15.28379459,"ECCENTRICITY":0.0013389,"INCLINATION":82.5154,"RA_OF_ASC_NODE":95.5539,"ARG_OF_PERICENTER":93.7039,"MEAN_ANOMALY":266.5731,"EPHEMERIS_TYPE":0,"CLASSIFICATION_TYPE":"U","NORAD_CAT_ID":19573,"ELEMENT_SET_NO":999,"REV_AT_EPOCH":2277,"BSTAR":0.00031929,"MEAN_MOTION_DOT":8.877e-5,"MEAN_MOTION_DDOT":0},{"OBJECT_NAME":"SL-14 R/B","OBJECT_ID":"1988-093B","EPOCH":"2026-03-31T21:19:57.345024","MEAN_MOTION":14.85683524,"ECCENTRICITY":0.0019848,"INCLINATION":82.5343,"RA_OF_ASC_NODE":21.2085,"ARG_OF_PERICENTER":328.6618,"MEAN_ANOMALY":95.942,"EPHEMERIS_TYPE":0,"CLASSIFICATION_TYPE":"U","NORAD_CAT_ID":19574,"ELEMENT_SET_NO":999,"REV_AT_EPOCH":431,"BSTAR":7.8832e-5,"MEAN_MOTION_DOT":7.1e-6,"MEAN_MOTION_DDOT":0},{"OBJECT_NAME":"SL-16 R/B","OBJECT_ID":"1988-102B","EPOCH":"2026-03-31T10:45:53.830944","MEAN_MOTION":14.16153588,"ECCENTRICITY":0.00152281,"INCLINATION":70.997,"RA_OF_ASC_NODE":105.7134,"ARG_OF_PERICENTER":329.4256,"MEAN_ANOMALY":30.5978,"EPHEMERIS_TYPE":0,"CLASSIFICATION_TYPE":"U","NORAD_CAT_ID":19650,"ELEMENT_SET_NO":999,"REV_AT_EPOCH":92997,"BSTAR":4.646294e-5,"MEAN_MOTION_DOT":4.4e-7,"MEAN_MOTION_DDOT":0},{"OBJECT_NAME":"INTERCOSMOS 24","OBJECT_ID":"1989-080A","EPOCH":"2026-03-31T17:25:15.412512","MEAN_MOTION":12.59586061,"ECCENTRICITY":0.1186921,"INCLINATION":82.6014,"RA_OF_ASC_NODE":90.0497,"ARG_OF_PERICENTER":241.6271,"MEAN_ANOMALY":106.0225,"EPHEMERIS_TYPE":0,"CLASSIFICATION_TYPE":"U","NORAD_CAT_ID":20261,"ELEMENT_SET_NO":999,"REV_AT_EPOCH":66957,"BSTAR":0.0001811,"MEAN_MOTION_DOT":6.13e-6,"MEAN_MOTION_DDOT":0},{"OBJECT_NAME":"SL-14 R/B","OBJECT_ID":"1989-080C","EPOCH":"2026-03-31T11:32:19.468032","MEAN_MOTION":12.50514838,"ECCENTRICITY":0.12309031,"INCLINATION":82.5951,"RA_OF_ASC_NODE":159.2034,"ARG_OF_PERICENTER":134.9651,"MEAN_ANOMALY":235.8177,"EPHEMERIS_TYPE":0,"CLASSIFICATION_TYPE":"U","NORAD_CAT_ID":20262,"ELEMENT_SET_NO":999,"REV_AT_EPOCH":66287,"BSTAR":0.00013785231,"MEAN_MOTION_DOT":4.87e-6,"MEAN_MOTION_DDOT":0},{"OBJECT_NAME":"DELTA 1 R/B","OBJECT_ID":"1989-089B","EPOCH":"2026-03-31T13:19:10.138944","MEAN_MOTION":14.5068158,"ECCENTRICITY":0.00703637,"INCLINATION":97.0689,"RA_OF_ASC_NODE":294.5129,"ARG_OF_PERICENTER":54.2402,"MEAN_ANOMALY":306.5312,"EPHEMERIS_TYPE":0,"CLASSIFICATION_TYPE":"U","NORAD_CAT_ID":20323,"ELEMENT_SET_NO":999,"REV_AT_EPOCH":89890,"BSTAR":0.00012689547,"MEAN_MOTION_DOT":4.79e-6,"MEAN_MOTION_DDOT":0},{"OBJECT_NAME":"ARIANE 40 R/B","OBJECT_ID":"1990-005H","EPOCH":"2026-03-31T10:12:14.023584","MEAN_MOTION":14.39884987,"ECCENTRICITY":0.00111009,"INCLINATION":98.3038,"RA_OF_ASC_NODE":150.4341,"ARG_OF_PERICENTER":135.3902,"MEAN_ANOMALY":224.8182,"EPHEMERIS_TYPE":0,"CLASSIFICATION_TYPE":"U","NORAD_CAT_ID":20443,"ELEMENT_SET_NO":999,"REV_AT_EPOCH":89593,"BSTAR":0.00012766233,"MEAN_MOTION_DOT":3.59e-6,"MEAN_MOTION_DDOT":0},{"OBJECT_NAME":"DELTA 2 R/B(1)","OBJECT_ID":"1990-008B","EPOCH":"2026-03-31T20:59:59.828064","MEAN_MOTION":15.58979232,"ECCENTRICITY":0.0076971,"INCLINATION":35.6042,"RA_OF_ASC_NODE":28.9373,"ARG_OF_PERICENTER":107.0772,"MEAN_ANOMALY":253.8413,"EPHEMERIS_TYPE":0,"CLASSIFICATION_TYPE":"U","NORAD_CAT_ID":20453,"ELEMENT_SET_NO":999,"REV_AT_EPOCH":92959,"BSTAR":0.00075838,"MEAN_MOTION_DOT":0.00070872,"MEAN_MOTION_DDOT":0},{"OBJECT_NAME":"COSMOS 2058","OBJECT_ID":"1990-010A","EPOCH":"2026-03-31T21:25:50.028960","MEAN_MOTION":15.11534249,"ECCENTRICITY":0.0007639,"INCLINATION":82.4711,"RA_OF_ASC_NODE":25.5497,"ARG_OF_PERICENTER":253.5175,"MEAN_ANOMALY":106.5216,"EPHEMERIS_TYPE":0,"CLASSIFICATION_TYPE":"U","NORAD_CAT_ID":20465,"ELEMENT_SET_NO":999,"REV_AT_EPOCH":94559,"BSTAR":0.00038301,"MEAN_MOTION_DOT":6.522e-5,"MEAN_MOTION_DDOT":0},{"OBJECT_NAME":"SL-14 R/B","OBJECT_ID":"1990-010B","EPOCH":"2026-03-31T16:11:05.083296","MEAN_MOTION":14.83590503,"ECCENTRICITY":0.0018761,"INCLINATION":82.5001,"RA_OF_ASC_NODE":246.7321,"ARG_OF_PERICENTER":224.4312,"MEAN_ANOMALY":135.5399,"EPHEMERIS_TYPE":0,"CLASSIFICATION_TYPE":"U","NORAD_CAT_ID":20466,"ELEMENT_SET_NO":999,"REV_AT_EPOCH":93174,"BSTAR":8.2096e-5,"MEAN_MOTION_DOT":7.02e-6,"MEAN_MOTION_DDOT":0},{"OBJECT_NAME":"SL-14 R/B","OBJECT_ID":"1990-018B","EPOCH":"2026-03-31T17:07:06.888288","MEAN_MOTION":14.82167425,"ECCENTRICITY":0.0016713,"INCLINATION":82.524,"RA_OF_ASC_NODE":202.5092,"ARG_OF_PERICENTER":24.3549,"MEAN_ANOMALY":335.8451,"EPHEMERIS_TYPE":0,"CLASSIFICATION_TYPE":"U","NORAD_CAT_ID":20511,"ELEMENT_SET_NO":999,"REV_AT_EPOCH":92584,"BSTAR":7.4783e-5,"MEAN_MOTION_DOT":6.2e-6,"MEAN_MOTION_DDOT":0},{"OBJECT_NAME":"HST","OBJECT_ID":"1990-037B","EPOCH":"2026-03-31T17:36:38.652480","MEAN_MOTION":15.29835555,"ECCENTRICITY":0.000192,"INCLINATION":28.4719,"RA_OF_ASC_NODE":249.5828,"ARG_OF_PERICENTER":22.4714,"MEAN_ANOMALY":337.5965,"EPHEMERIS_TYPE":0,"CLASSIFICATION_TYPE":"U","NORAD_CAT_ID":20580,"ELEMENT_SET_NO":999,"REV_AT_EPOCH":77669,"BSTAR":0.00034249,"MEAN_MOTION_DOT":0.00010424,"MEAN_MOTION_DDOT":0},{"OBJECT_NAME":"SL-16 R/B","OBJECT_ID":"1990-046B","EPOCH":"2026-03-31T16:22:34.281408","MEAN_MOTION":14.15017958,"ECCENTRICITY":0.0016435,"INCLINATION":70.9982,"RA_OF_ASC_NODE":251.7206,"ARG_OF_PERICENTER":270.891,"MEAN_ANOMALY":89.0329,"EPHEMERIS_TYPE":0,"CLASSIFICATION_TYPE":"U","NORAD_CAT_ID":20625,"ELEMENT_SET_NO":999,"REV_AT_EPOCH":85150,"BSTAR":0.00010376,"MEAN_MOTION_DOT":1.53e-6,"MEAN_MOTION_DDOT":0},{"OBJECT_NAME":"COSMOS 2084","OBJECT_ID":"1990-055A","EPOCH":"2026-03-31T20:05:23.999712","MEAN_MOTION":15.05780207,"ECCENTRICITY":0.0013571,"INCLINATION":62.7893,"RA_OF_ASC_NODE":260.0317,"ARG_OF_PERICENTER":197.2264,"MEAN_ANOMALY":162.8378,"EPHEMERIS_TYPE":0,"CLASSIFICATION_TYPE":"U","NORAD_CAT_ID":20663,"ELEMENT_SET_NO":999,"REV_AT_EPOCH":93965,"BSTAR":0.00028884,"MEAN_MOTION_DOT":4.014e-5,"MEAN_MOTION_DDOT":0},{"OBJECT_NAME":"SL-6 R/B(2)","OBJECT_ID":"1990-055D","EPOCH":"2026-03-31T14:01:07.488480","MEAN_MOTION":15.03702248,"ECCENTRICITY":0.0028399,"INCLINATION":62.7835,"RA_OF_ASC_NODE":179.3893,"ARG_OF_PERICENTER":351.9848,"MEAN_ANOMALY":8.0793,"EPHEMERIS_TYPE":0,"CLASSIFICATION_TYPE":"U","NORAD_CAT_ID":20666,"ELEMENT_SET_NO":999,"REV_AT_EPOCH":94148,"BSTAR":0.00022091,"MEAN_MOTION_DOT":2.867e-5,"MEAN_MOTION_DDOT":0},{"OBJECT_NAME":"SL-8 R/B","OBJECT_ID":"1990-078B","EPOCH":"2026-03-31T21:06:35.779392","MEAN_MOTION":14.89719983,"ECCENTRICITY":0.0358009,"INCLINATION":82.9031,"RA_OF_ASC_NODE":231.341,"ARG_OF_PERICENTER":299.1311,"MEAN_ANOMALY":57.451,"EPHEMERIS_TYPE":0,"CLASSIFICATION_TYPE":"U","NORAD_CAT_ID":20775,"ELEMENT_SET_NO":999,"REV_AT_EPOCH":81260,"BSTAR":0.00039426,"MEAN_MOTION_DOT":0.00013307,"MEAN_MOTION_DDOT":0}]
